0 COSMOS 2251 DEB
1 34625U 93036WW  13282.22264784  .00059875  00000-0  44683-2 0  3403
2 34625 074.0102 298.2698 0065188 095.7106 265.1518 15.00832022247505
0 COSMOS 2251 DEB
1 34625U 93036WW  13283.15583225  .00045748  00000-0  34136-2 0  3417
2 34625 074.0102 296.3673 0065107 093.5733 267.2904 15.00918218247649
0 COSMOS 2251 DEB
1 34625U 93036WW  13284.15562035  .00045449  00000-0  33863-2 0  3429
2 34625 074.0101 294.3290 0064959 091.1814 269.6817 15.00982535247797
0 COSMOS 2251 DEB
1 34625U 93036WW  13286.42163316  .00040933  00000-0  30398-2 0  3445
2 34625 074.0099 289.7084 0064716 086.0838 274.7745 15.01144257248130
0 COSMOS 2251 DEB
1 34625U 93036WW  13287.75446363  .00062083  00000-0  45825-2 0  3450
2 34625 074.0094 286.9901 0064637 083.1174 277.7361 15.01260018248338
0 COSMOS 2251 DEB
1 34625U 93036WW  13289.08716490  .00064906  00000-0  47687-2 0  3464
2 34625 074.0090 284.2715 0064652 080.0826 280.7651 15.01417728248535
0 COSMOS 2251 DEB
1 34625U 93036WW  13289.75346785  .00069782  00000-0  51153-2 0  3475
2 34625 074.0087 282.9123 0064741 078.4202 282.4244 15.01472792248637
0 COSMOS 2251 DEB
1 34625U 93036WW  13290.08660973  .00060453  00000-0  44332-2 0  3489
2 34625 074.0086 282.2320 0064757 077.6717 283.1709 15.01505901248685
0 COSMOS 2251 DEB
1 34625U 93036WW  13291.15261004  .00059202  00000-0  43292-2 0  3495
2 34625 074.0086 280.0560 0064631 075.4113 285.4229 15.01624652248849
0 COSMOS 2251 DEB
1 34625U 93036WW  13292.35176357  .00060519  00000-0  44110-2 0  3509
2 34625 074.0088 277.6075 0064483 072.8405 287.9829 15.01747802249021
0 COSMOS 2251 DEB
1 34625U 93036WW  13293.75064547  .00067776  00000-0  49160-2 0  3514
2 34625 074.0089 274.7515 0064361 069.7682 291.0410 15.01897532249237
0 COSMOS 2251 DEB
1 34625U 93036WW  13295.08277898  .00070634  00000-0  51032-2 0  3526
2 34625 074.0096 272.0306 0064034 066.9568 293.8355 15.02046286249436
0 COSMOS 2251 DEB
1 34625U 93036WW  13296.14838790  .00079318  00000-0  57030-2 0  3531
2 34625 074.0097 269.8546 0063975 064.6767 296.1029 15.02184808249590
